[{"OBJECT_NAME":"COSMOS 2515","OBJECT_ID":"2016-020A","EPOCH":"2026-03-09T23:19:22.597248","MEAN_MOTION":15.0760084,"ECCENTRICITY":0.00222602,"INCLINATION":97.9825,"RA_OF_ASC_NODE":80.7081,"ARG_OF_PERICENTER":278.8424,"MEAN_ANOMALY":81.0282,"EPHEMERIS_TYPE":0,"CLASSIFICATION_TYPE":"U","NORAD_CAT_ID":41394,"ELEMENT_SET_NO":999,"REV_AT_EPOCH":54546,"BSTAR":0.00011725414,"MEAN_MOTION_DOT":1.724e-5,"MEAN_MOTION_DDOT":0},{"OBJECT_NAME":"STARLINK-5702","OBJECT_ID":"2023-020BF","EPOCH":"2026-03-09T03:57:53.551296","MEAN_MOTION":15.02529652,"ECCENTRICITY":0.00015279,"INCLINATION":43.0062,"RA_OF_ASC_NODE":354.2381,"ARG_OF_PERICENTER":277.605,"MEAN_ANOMALY":82.4619,"EPHEMERIS_TYPE":0,"CLASSIFICATION_TYPE":"U","NORAD_CAT_ID":55622,"ELEMENT_SET_NO":999,"REV_AT_EPOCH":16899,"BSTAR":-3.7877432e-5,"MEAN_MOTION_DOT":-7.15e-6,"MEAN_MOTION_DDOT":0}]
